NORAD_CAT_ID,OBJECT_NAME,OBJECT_TYPE,EPOCH,MEAN_MOTION,ECCENTRICITY,INCLINATION,RA_OF_ASC_NODE,ARG_OF_PERICENTER,MEAN_ANOMALY,BSTAR,MEAN_MOTION_DOT,MEAN_MOTION_DDOT,TLE_LINE0,TLE_LINE1,TLE_LINE2,SEMIMAJOR_AXIS,PERIOD,APOGEE,PERIGEE,DECAYED
55756.0,STARLINK-5614,PAYLOAD,2023-10-31 21:07:48,14.98329022,0.0003102,70.0004,252.1509,272.5112,87.5692,9.1431e-05,9.98e-06,0.0,0 STARLINK-5614,1 55756U 23028R   23304.88042112  .00000998  00000-0  91431-4 0  9999,2 55756  70.0004 252.1509 0003102 272.5112  87.5692 14.98329022 37255,6950.196,96.107,574.217,569.905,0.0
55756.0,STARLINK-5614,PAYLOAD,2023-10-31 22:43:56,14.98328948,0.0003103,70.0002,251.9826,271.8117,88.2687,8.4069e-05,9.1e-06,0.0,0 STARLINK-5614,1 55756U 23028R   23304.94718139  .00000910  00000-0  84069-4 0  9998,2 55756  70.0002 251.9826 0003103 271.8117  88.2687 14.98328948 37269,6950.196,96.107,574.218,569.904,0.0
55756.0,STARLINK-5614,PAYLOAD,2023-11-01 06:44:36,14.98324875,0.000298,70.0,251.142,270.9209,89.1608,0.00025934,3.002e-05,0.0,0 STARLINK-5614,1 55756U 23028R   23305.28098005  .00003002  00000-0  25934-3 0  9999,2 55756  70.0000 251.1420 0002980 270.9209  89.1608 14.98324875 37317,6950.209,96.107,574.145,570.003,0.0
55756.0,STARLINK-5614,PAYLOAD,2023-11-01 21:09:49,14.98332813,0.0002738,70.0002,249.6266,272.827,87.2576,7.5499e-05,8.08e-06,0.0,0 STARLINK-5614,1 55756U 23028R   23305.88181795  .00000808  00000-0  75499-4 0  9997,2 55756  70.0002 249.6266 0002738 272.8270  87.2576 14.98332813 37403,6950.184,96.107,573.952,570.146,0.0
55756.0,STARLINK-5614,PAYLOAD,2023-11-01 22:45:57,14.98332688,0.0002751,70.0002,249.4582,272.6284,87.456,7.3223e-05,7.81e-06,0.0,0 STARLINK-5614,1 55756U 23028R   23305.94857791  .00000781  00000-0  73223-4 0  9993,2 55756  70.0002 249.4582 0002751 272.6284  87.4560 14.98332688 37416,6950.185,96.107,573.962,570.138,0.0
55756.0,STARLINK-5614,PAYLOAD,2023-11-02 13:11:09,14.98369349,0.0002226,70.0025,247.9422,283.1039,76.9872,-0.000672,-8.11e-05,0.0,0 STARLINK-5614,1 55756U 23028R   23306.54941028 -.00008110  00000-0 -67200-3 0  9990,2 55756  70.0025 247.9422 0002226 283.1039  76.9872 14.98369349 37502,6950.071,96.104,573.483,570.389,0.0
55756.0,STARLINK-5614,PAYLOAD,2023-11-02 21:11:50,14.98332819,0.0002532,70.0021,247.1018,271.2334,88.8535,-9.449e-06,-2.06e-06,0.0,0 STARLINK-5614,1 55756U 23028R   23306.88321816 -.00000206  00000-0 -94490-5 0  9995,2 55756  70.0021 247.1018 0002532 271.2334  88.8535 14.98332819 37552,6950.184,96.107,573.809,570.289,0.0
55756.0,STARLINK-5614,PAYLOAD,2023-11-03 13:13:10,14.98332135,0.000262,70.0005,245.4193,270.0888,89.9971,-2.2572e-05,-3.62e-06,0.0,0 STARLINK-5614,1 55756U 23028R   23307.55081766 -.00000362  00000-0 -22572-4 0  9991,2 55756  70.0005 245.4193 0002620 270.0888  89.9971 14.98332135 37656,6950.186,96.107,573.872,570.23,0.0
55756.0,STARLINK-5614,PAYLOAD,2023-11-04 03:38:23,14.98331977,0.0002709,69.9999,243.9031,264.0899,95.9951,1.5657e-06,-7.4e-07,0.0,0 STARLINK-5614,1 55756U 23028R   23308.15165620 -.00000074  00000-0  15657-5 0  9996,2 55756  69.9999 243.9031 0002709 264.0899  95.9951 14.98331977 37740,6950.187,96.107,573.935,570.169,0.0
55756.0,STARLINK-5614,PAYLOAD,2023-11-04 13:15:11,14.98329241,0.0003109,70.0008,242.8931,270.3884,89.6919,-0.00012239,-1.553e-05,0.0,0 STARLINK-5614,1 55756U 23028R   23308.55221925 -.00001553  00000-0 -12239-3 0  9996,2 55756  70.0008 242.8931 0003109 270.3884  89.6919 14.98329241 37802,6950.195,96.107,574.221,569.899,0.0
55756.0,STARLINK-5614,PAYLOAD,2023-11-04 21:15:52,14.98320904,0.0003012,70.0001,242.0493,272.2563,87.8251,0.00012926,1.449e-05,0.0,0 STARLINK-5614,1 55756U 23028R   23308.88601954  .00001449  00000-0  12926-3 0  9991,2 55756  70.0001 242.0493 0003012 272.2563  87.8251 14.98320904 37859,6950.221,96.108,574.179,569.993,0.0
55756.0,STARLINK-5614,PAYLOAD,2023-11-04 22:52:00,14.98325449,0.0002823,69.9998,241.884,271.9766,88.1069,3.0109e-05,2.66e-06,0.0,0 STARLINK-5614,1 55756U 23028R   23308.95278004  .00000266  00000-0  30109-4 0  9995,2 55756  69.9998 241.8840 0002823 271.9766  88.1069 14.98325449 37865,6950.207,96.107,574.034,570.11,0.0
55756.0,STARLINK-5614,PAYLOAD,2023-11-05 03:40:23,14.9833681,0.0002871,69.9996,241.3783,268.5262,91.5568,0.00012403,1.387e-05,0.0,0 STARLINK-5614,1 55756U 23028R   23309.15305039  .00001387  00000-0  12403-3 0  9998,2 55756  69.9996 241.3783 0002871 268.5262  91.5568 14.98336810 37899,6950.172,96.107,574.032,570.041,0.0
55756.0,STARLINK-5614,PAYLOAD,2023-11-05 13:17:12,14.98336549,0.0002721,70.0016,240.369,284.1673,75.9184,6.206e-05,6.48e-06,0.0,0 STARLINK-5614,1 55756U 23028R   23309.55361190  .00000648  00000-0  62060-4 0  9996,2 55756  70.0016 240.3690 0002721 284.1673  75.9184 14.98336549 37951,6950.173,96.107,573.929,570.146,0.0
55756.0,STARLINK-5614,PAYLOAD,2023-11-05 19:41:44,14.98329955,0.0002954,70.0009,239.6938,269.4735,90.6086,0.00014232,1.606e-05,0.0,0 STARLINK-5614,1 55756U 23028R   23309.82065170  .00001606  00000-0  14232-3 0  9997,2 55756  70.0009 239.6938 0002954 269.4735  90.6086 14.98329955 37994,6950.193,96.107,574.111,570.005,0.0
55756.0,STARLINK-5614,PAYLOAD,2023-11-05 22:53:59,14.9834107,0.0002454,70.0007,239.3578,273.7322,86.3556,0.00017652,2.014e-05,0.0,0 STARLINK-5614,1 55756U 23028R   23309.95416534  .00002014  00000-0  17652-3 0  9998,2 55756  70.0007 239.3578 0002454 273.7322  86.3556 14.98341070 38014,6950.159,96.106,573.729,570.318,0.0
55756.0,STARLINK-5614,PAYLOAD,2023-11-06 02:06:14,14.98357592,0.0002781,69.9998,239.0216,270.7186,89.3654,0.00033073,3.858e-05,0.0,0 STARLINK-5614,1 55756U 23028R   23310.08766917  .00003858  00000-0  33073-3 0  9999,2 55756  69.9998 239.0216 0002781 270.7186  89.3654 14.98357592 38034,6950.108,96.105,573.905,570.04,0.0
55756.0,STARLINK-5614,PAYLOAD,2023-11-06 13:19:13,14.98332957,0.0002392,70.0012,237.8436,288.8997,71.1902,-3.5168e-05,-5.13e-06,0.0,0 STARLINK-5614,1 55756U 23028R   23310.55501213 -.00000513  00000-0 -35168-4 0  9992,2 55756  70.0012 237.8436 0002392 288.8997  71.1902 14.98332957 38103,6950.184,96.107,573.711,570.386,0.0
55756.0,STARLINK-5614,PAYLOAD,2023-11-06 19:43:48,14.98287721,0.0003187,69.9995,237.1705,274.918,85.1615,-0.00041184,-4.998e-05,0.0,0 STARLINK-5614,1 55756U 23028R   23310.82208903 -.00004998  00000-0 -41184-3 0  9997,2 55756  69.9995 237.1705 0003187 274.9180  85.1615 14.98287721 38143,6950.324,96.11,574.404,569.974,0.0
55756.0,STARLINK-5614,PAYLOAD,2023-11-06 21:19:56,14.98297088,0.0002803,69.9991,237.0009,273.3092,86.7747,-0.0003202,-3.908e-05,0.0,0 STARLINK-5614,1 55756U 23028R   23310.88884301 -.00003908  00000-0 -32020-3 0  9994,2 55756  69.9991 237.0009 0002803 273.3092  86.7747 14.98297088 38155,6950.295,96.109,574.108,570.212,0.0
55756.0,STARLINK-5614,PAYLOAD,2023-11-07 03:44:28,14.98300385,0.0002671,70.0,236.3298,274.6238,85.4616,-0.00021425,-2.646e-05,0.0,0 STARLINK-5614,1 55756U 23028R   23311.15588370 -.00002646  00000-0 -21425-3 0  9997,2 55756  70.0000 236.3298 0002671 274.6238  85.4616 14.98300385 38190,6950.284,96.109,574.006,570.293,0.0
55756.0,STARLINK-5614,PAYLOAD,2023-11-07 05:20:36,14.98308621,0.0002921,69.9998,236.1614,276.8691,83.2135,-0.00024535,-3.018e-05,0.0,0 STARLINK-5614,1 55756U 23028R   23311.22264001 -.00003018  00000-0 -24535-3 0  9996,2 55756  69.9998 236.1614 0002921 276.8691  83.2135 14.98308621 38203,6950.259,96.108,574.154,570.094,0.0
55756.0,STARLINK-5614,PAYLOAD,2023-11-07 19:45:48,14.98319599,0.00031,70.0015,234.646,276.1343,83.9462,-0.00017796,-2.215e-05,0.0,0 STARLINK-5614,1 55756U 23028R   23311.82347583 -.00002215  00000-0 -17796-3 0  9998,2 55756  70.0015 234.6460 0003100 276.1343  83.9462 14.98319599 38290,6950.225,96.108,574.245,569.935,0.0
55756.0,STARLINK-5614,PAYLOAD,2023-11-08 02:10:19,14.98335831,0.0001991,70.0021,233.9752,253.2807,106.8134,-0.00021434,-2.65e-05,0.0,0 STARLINK-5614,1 55756U 23028R   23312.09050786 -.00002650  00000-0 -21434-3 0  9991,2 55756  70.0021 233.9752 0001991 253.2807 106.8134 14.98335831 38333,6950.175,96.107,573.424,570.656,0.0
55756.0,STARLINK-5614,PAYLOAD,2023-11-08 05:22:35,14.98336556,0.0002548,70.001,233.6376,267.5195,92.5672,-1.3041e-05,-2.49e-06,0.0,0 STARLINK-5614,1 55756U 23028R   23312.22402220 -.00000249  00000-0 -13041-4 0  9998,2 55756  70.0010 233.6376 0002548 267.5195  92.5672 14.98336556 38352,6950.173,96.107,573.809,570.267,0.0
55756.0,STARLINK-5614,PAYLOAD,2023-11-08 21:23:55,14.98314583,0.000334,70.0006,231.9534,283.4933,76.5854,0.00060209,7.096e-05,0.0,0 STARLINK-5614,1 55756U 23028R   23312.89161877  .00007096  00000-0  60209-3 0  9993,2 55756  70.0006 231.9534 0003340 283.4933  76.5854 14.98314583 38453,6950.241,96.108,574.427,569.784,0.0
55756.0,STARLINK-5614,PAYLOAD,2023-11-09 03:48:27,14.98307177,0.0002895,70.0009,231.2805,279.4956,80.5876,0.00096592,0.00011444,0.0,0 STARLINK-5614,1 55756U 23028R   23313.15865693  .00011444  00000-0  96592-3 0  9996,2 55756  70.0009 231.2805 0002895 279.4956  80.5876 14.98307177 38498,6950.263,96.108,574.141,570.116,0.0
55756.0,STARLINK-5614,PAYLOAD,2023-11-09 05:24:35,14.98307933,0.0002878,70.0009,231.1118,278.7882,81.2951,0.0010152,0.00012034,0.0,0 STARLINK-5614,1 55756U 23028R   23313.22541640  .00012034  00000-0  10152-2 0  9990,2 55756  70.0009 231.1118 0002878 278.7882  81.2951 14.98307933 38509,6950.261,96.108,574.126,570.126,0.0
55756.0,STARLINK-5614,PAYLOAD,2023-11-09 23:02:05,14.98334777,0.000336,69.9999,229.2608,281.8543,78.2239,1.656e-05,1.05e-06,0.0,0 STARLINK-5614,1 55756U 23028R   23313.95978095  .00000105  00000-0  16560-4 0  9995,2 55756  69.9999 229.2608 0003360 281.8543  78.2239 14.98334777 38615,6950.178,96.107,574.378,569.708,0.0
55756.0,STARLINK-5614,PAYLOAD,2023-11-10 03:50:29,14.98321942,0.0003059,70.0007,228.7562,273.9639,86.1171,0.00026783,3.103e-05,0.0,0 STARLINK-5614,1 55756U 23028R   23314.16006213  .00003103  00000-0  26783-3 0  9991,2 55756  70.0007 228.7562 0003059 273.9639  86.1171 14.98321942 38640,6950.218,96.108,574.209,569.957,0.0
